<?xml version="1.0" encoding="UTF-8"?>
<kml xmlns="http://www.opengis.net/kml/2.2" xmlns:gx="http://www.google.com/kml/ext/2.2" xmlns:kml="http://www.opengis.net/kml/2.2" xmlns:atom="http://www.w3.org/2005/Atom">
<Document>
	<name>Aracatu_REV0_01.kml</name>
	<open>1</open>
	<Style id="PolyStyle00">
		<LabelStyle>
			<color>00000000</color>
			<scale>0</scale>
		</LabelStyle>
		<LineStyle>
			<color>ff0000ff</color>
			<width>1.5</width>
		</LineStyle>
		<PolyStyle>
			<color>00f0f0f0</color>
		</PolyStyle>
	</Style>
	<Style id="PolyStyle000">
		<LabelStyle>
			<color>00000000</color>
			<scale>0</scale>
		</LabelStyle>
		<LineStyle>
			<color>ff0000ff</color>
			<width>1.5</width>
		</LineStyle>
		<PolyStyle>
			<color>00f0f0f0</color>
		</PolyStyle>
	</Style>
	<StyleMap id="PolyStyle001">
		<Pair>
			<key>normal</key>
			<styleUrl>#PolyStyle00</styleUrl>
		</Pair>
		<Pair>
			<key>highlight</key>
			<styleUrl>#PolyStyle000</styleUrl>
		</Pair>
	</StyleMap>
	<Folder id="FeatureLayer0">
		<name>canteiro_obra</name>
		<Snippet maxLines="0"></Snippet>
		<Placemark id="ID_00000">
			<name>Placemark</name>
			<Snippet maxLines="0"></Snippet>
			<description><![CDATA[<html xmlns:fo="http://www.w3.org/1999/XSL/Format" xmlns:msxsl="urn:schemas-microsoft-com:xslt">

<head>

<META http-equiv="Content-Type" content="text/html">

<meta http-equiv="content-type" content="text/html; charset=UTF-8">

</head>

<body style="margin:0px 0px 0px 0px;overflow:auto;background:#FFFFFF;">

<table style="font-family:Arial,Verdana,Times;font-size:12px;text-align:left;width:100%;border-collapse:collapse;padding:3px 3px 3px 3px">

<tr style="text-align:center;font-weight:bold;background:#9CBCE2">

<td>Placemark</td>

</tr>

<tr>

<td>

<table style="font-family:Arial,Verdana,Times;font-size:12px;text-align:left;width:100%;border-spacing:0px; padding:3px 3px 3px 3px">

<tr>

<td>FID</td>

<td>0</td>

</tr>

<tr bgcolor="#D4E4F3">

<td>OID_</td>

<td>0</td>

</tr>

<tr>

<td>Name</td>

<td>Placemark</td>

</tr>

<tr bgcolor="#D4E4F3">

<td>FolderPath</td>

<td>Document/canteiro_obra</td>

</tr>

<tr>

<td>SymbolID</td>

<td>0</td>

</tr>

<tr bgcolor="#D4E4F3">

<td>AltMode</td>

<td>0</td>

</tr>

<tr>

<td>Base</td>

<td>0</td>

</tr>

<tr bgcolor="#D4E4F3">

<td>Clamped</td>

<td>-1</td>

</tr>

<tr>

<td>Extruded</td>

<td>0</td>

</tr>

<tr bgcolor="#D4E4F3">

<td>Snippet</td>

<td></td>

</tr>

<tr>

<td>PopupInfo</td>

<td></td>

</tr>

<tr bgcolor="#D4E4F3">

<td>Shape_Leng</td>

<td>1,279035</td>

</tr>

</table>

</td>

</tr>

</table>

</body>

</html>]]></description>
			<styleUrl>#PolyStyle001</styleUrl>
			<MultiGeometry>
				<Polygon>
					<outerBoundaryIs>
						<LinearRing>
							<coordinates>
								-40.53608486149989,-21.51582013899997,0 -40.48433805599996,-21.33631555599993,0 -40.71801277799989,-21.24480777799988,0 -40.74265611099997,-21.2678733329999,0 -40.76485499999995,-21.29146027799993,0 -40.76840527799993,-21.34512749999993,0 -40.78100333299983,-21.41720361099993,0 -40.53608486149989,-21.51582013899997,0 
							</coordinates>
						</LinearRing>
					</outerBoundaryIs>
				</Polygon>
			</MultiGeometry>
		</Placemark>
	</Folder>
</Document>
</kml>
