<?xml version="1.0" encoding="UTF-8"?>
<kml xmlns="http://www.opengis.net/kml/2.2" xmlns:gx="http://www.google.com/kml/ext/2.2" xmlns:kml="http://www.opengis.net/kml/2.2" xmlns:atom="http://www.w3.org/2005/Atom">
<Folder>
	<name>CE-01 - Caucaia BI Energia</name>
	<open>1</open>
	<Placemark>
		<name>Poligonal  CE-01 - Caucaia BI Energia</name>
		<styleUrl>#falseColor111</styleUrl>
		<ExtendedData>
			<SchemaData schemaUrl="#S_20220331_ADAs_SSSSDDS">
				<SimpleData name="Código">CE-01</SimpleData>
				<SimpleData name="Usina">Caucaia - Bi Energia</SimpleData>
				<SimpleData name="Processo">02001.003915/2016-68</SimpleData>
				<SimpleData name="Aberto_em">2016/08/10</SimpleData>
				<SimpleData name="Potência">576</SimpleData>
				<SimpleData name="Torres">48</SimpleData>
				<SimpleData name="Área__km2">172.232</SimpleData>
				<SimpleData name="Titular">Bi Energia Ltda</SimpleData>
			</SchemaData>
		</ExtendedData>
		<gx:balloonVisibility>1</gx:balloonVisibility>
		<Polygon>
			<outerBoundaryIs>
				<LinearRing>
					<coordinates>
						-38.60586976267933,-3.658200547017596,0 -38.60582067588342,-3.65819982396266,0 -38.60568570113418,-3.658196726697556,0 -38.60567343528077,-3.658196319304636,0 -38.60557531834621,-3.658192654567303,0 -38.60550173851437,-3.658189502443521,0 -38.60537910875882,-3.65818454448112,0 -38.60528106736735,-3.658179166535271,0 -38.60508511228807,-3.658166263062521,0 -38.60498721029148,-3.658158737535639,0 -38.60479158166612,-3.658141542498126,0 -38.6046938667285,-3.658131872987493,0 -38.60449865898591,-3.658110394479082,0 -38.60440117697271,-3.658098586380623,0 -38.60420648184363,-3.65807283429382,0 -38.6041092795196,-3.658058892104117,0 -38.60391518963427,-3.658028879029471,0 -38.60381831286481,-3.65801280994315,0 -38.60372153232283,-3.657996211156165,0 -38.60362492085334,-3.657978550269831,0 -38.60352841730259,-3.657960361481456,0 -38.60333581489591,-3.657921871397216,0 -38.60323972863051,-3.657901572799294,0 -38.60304800755944,-3.657858870290565,0 -38.60295238534428,-3.65783646997704,0 -38.60276163733965,-3.657789575728316,0 -38.60266652414071,-3.657765085390339,0 -38.60247684003411,-3.657714021884535,0 -38.60238228081755,-3.657687452314011,0 -38.60219375144045,-3.657632243832944,0 -38.6020997911724,-3.657603607620323,0 -38.60191250555766,-3.657544281143592,0 -38.60181918920416,-3.657513592678123,0 -38.60163323638471,-3.657450174286045,0 -38.60154060891194,-3.6574174488561,0 -38.6014481747934,-3.657384219805868,0 -38.60135607702131,-3.657349970025057,0 -38.60126418249598,-3.657315222019863,0 -38.60108115966773,-3.657243715125338,0 -38.6009900421567,-3.657206960732589,0 -38.60080861562506,-3.657131459948864,0 -38.6007183173964,-3.657092718054451,0 -38.60053857349636,-3.657013258455091,0 -38.60044913771748,-3.656972546146047,0 -38.60027116188456,-3.656889166401878,0 -38.60018263172304,-3.656846503463336,0 -38.60000650849354,-3.656759243144505,0 -38.59991892621741,-3.656714650260879,0 -38.59974474012762,-3.656623549836915,0 -38.59965814620642,-3.65657704859188,0 -38.59948597999392,-3.656482152129572,0 -38.59940041669585,-3.656433764106903,0 -38.59931513578482,-3.65638491742994,0 -38.59923035129965,-3.656335117471663,0 -38.59914585999343,-3.656284865154356,0 -38.59897797725183,-3.656182514211594,0 -38.59889459660832,-3.656130421881405,0 -38.59872897566162,-3.656024416993198,0 -38.5986467461504,-3.655970509831084,0 -38.59848346703831,-3.655860899560823,0 -38.59840242733009,-3.655805202747842,0 -38.59824156739437,-3.655692040155485,0 -38.59816175705942,-3.655634580671294,0 -38.59800339274233,-3.655517918816817,0 -38.59792484775346,-3.655458723641116,0 -38.59776905459812,-3.655338619181858,0 -38.5976918145256,-3.655277717092926,0 -38.59753866537704,-3.655154226686186,0 -38.59746276619364,-3.655091645562942,0 -38.59738722853773,-3.655028667838687,0 -38.59725105499217,-3.654911529343563,0 -38.59711607844424,-3.654793058952466,0 -38.59698227461222,-3.654673237779662,0 -38.59685087286942,-3.654550764506159,0 -38.59672069780191,-3.654426988114943,0 -38.59659174940965,-3.654301910404794,0 -38.5964653056293,-3.654174277720692,0 -38.59634013978559,-3.654045392280971,0 -38.59621625007981,-3.653915254985012,0 -38.59609496481072,-3.653782666137091,0 -38.59597500604167,-3.653648875794946,0 -38.59585637287324,-3.653513886656479,0 -38.59067108790033,-3.647493878839376,0 -38.58548587397387,-3.6414738512372,0 -38.58031281348554,-3.635467833273813,0 -38.57513423026046,-3.629488441538289,0 -38.57511812699994,-3.6294697958943,0 -38.57510204892037,-3.629451128666636,0 -38.57508599602188,-3.629432438955857,0 -38.56991860306101,-3.623399660765696,0 -38.56475061205106,-3.617399226692899,0 -38.55956573177303,-3.611379083078183,0 -38.55952118655347,-3.611326962868995,0 -38.55947683918475,-3.61127467358727,0 -38.55943271125056,-3.611222241313328,0 -38.5593699898331,-3.611146301660422,0 -38.55930770458684,-3.611070046345499,0 -38.55918479694076,-3.610916181336685,0 -38.55912418173556,-3.610838578837279,0 -38.55900464384916,-3.610682056331762,0 -38.55894572836262,-3.610603144419537,0 -38.55882961779259,-3.610444039061129,0 -38.55877242900436,-3.610363854608172,0 -38.55865980060929,-3.610202241939864,0 -38.55860436729767,-3.610120822717759,0 -38.55849527413756,-3.609956780081285,0 -38.55844162238293,-3.609874165660181,0 -38.55833611751774,-3.609707770397212,0 -38.55828427070248,-3.609624000347316,0 -38.55818240449435,-3.609455332497529,0 -38.55813238959809,-3.609370445489626,0 -38.55808285493976,-3.609285317463398,0 -38.55803420971097,-3.609199585092715,0 -38.55798604921677,-3.609113621596294,0 -38.55789160241545,-3.608940650490575,0 -38.55784532060499,-3.608853651874484,0 -38.55775465185565,-3.608678651898234,0 -38.55771027031266,-3.608590659531281,0 -38.55762342278268,-3.608413713422076,0 -38.55758096219159,-3.608324769572391,0 -38.5574979772498,-3.60814596276595,0 -38.55745745739568,-3.60805610880232,0 -38.55737837461226,-3.60787552493548,0 -38.55733981617954,-3.607784805824117,0 -38.55726467332595,-3.607602531231797,0 -38.55722809340176,-3.607510987442089,0 -38.55715692555163,-3.60732711025787,0 -38.55712234212235,-3.607234786755946,0 -38.55708827400456,-3.60714231306724,0 -38.55705518434922,-3.607049392415487,0 -38.55702261360267,-3.606956333268099,0 -38.55695949648356,-3.60676951170354,0 -38.55692895460755,-3.606675760078197,0 -38.55686990961857,-3.60648759942314,0 -38.55684141010294,-3.606393201185254,0 -38.55678646422388,-3.60620379137186,0 -38.55676002145776,-3.606108790588161,0 -38.55670920076898,-3.605918221548612,0 -38.55668482644352,-3.60582266408465,0 -38.55663815702531,-3.605631026650489,0 -38.55661586283174,-3.605534957472296,0 -38.55657336536847,-3.605342342475064,0 -38.55655316299806,-3.605245807447992,0 -38.55651485637549,-3.605052306618632,0 -38.55649675572067,-3.604955352507493,0 -38.5564791874645,-3.604858341739035,0 -38.55646265972394,-3.604761058476009,0 -38.55644666797929,-3.604663730246893,0 -38.55641679879619,-3.604468734744268,0 -38.55640292405565,-3.604371079161928,0 -38.55637729607531,-3.604175475717566,0 -38.55636554553347,-3.604077538647452,0 -38.55634417044705,-3.603881419891597,0 -38.55633454860049,-3.603783249896984,0 -38.55631743719994,-3.603586709359099,0 -38.55630994854522,-3.603488350506956,0 -38.55629710892441,-3.603291481716446,0 -38.55629175795821,-3.603192983469348,0 -38.55628319551301,-3.602995879955877,0 -38.55627998493333,-3.602897286380593,0 -38.55627570416039,-3.602700042572846,0 -38.55627463486644,-3.602601403132211,0 -38.55627410066915,-3.602502802362382,0 -38.55627558634921,-3.602338577163542,0 -38.55627855501127,-3.602174423910471,0 -38.55628300755472,-3.602010297637099,0 -38.55629042516295,-3.601846280181642,0 -38.55629932305527,-3.60168234276586,0 -38.55630970303031,-3.601518487188393,0 -38.55853156897666,-3.570838824252285,0 -38.55854061795509,-3.570723980826975,0 -38.55855039448505,-3.570609200354289,0 -38.55857285685182,-3.570379909205381,0 -38.55858554088996,-3.570265415616412,0 -38.55861380927985,-3.570036772878729,0 -38.55862939183294,-3.569922642615828,0 -38.55866344825949,-3.569694797576792,0 -38.558681919435,-3.56958110258575,0 -38.55870110377288,-3.569467567674058,0 -38.55871868821686,-3.569370471470061,0 -38.55873679156964,-3.569273517358902,0 -38.55877510178948,-3.569080018328123,0 -38.55879530595853,-3.568983484200372,0 -38.55883780791844,-3.568790870102541,0 -38.55886010301128,-3.568694801823589,0 -38.55890677692617,-3.568503164389487,0 -38.55893115305025,-3.568407607824786,0 -38.55898197643699,-3.568217039684618,0 -38.55900842100181,-3.568122039800239,0 -38.55906336957877,-3.567932631785486,0 -38.55909187089311,-3.567838234446921,0 -38.55915091857998,-3.567650074691124,0 -38.55918146225464,-3.567556324864423,0 -38.55924458207176,-3.567369504199225,0 -38.55927715371762,-3.567276445951157,0 -38.55931021639332,-3.567183604439719,0 -38.5593634301781,-3.567040480933432,0 -38.55941782926937,-3.566897857450109,0 -38.55947342715689,-3.566755696218362,0 -38.5595314064492,-3.566614498160496,0 -38.55959056835001,-3.566473802823675,0 -38.5596509128593,-3.566333609308578,0 -38.55971360549848,-3.566194459007017,0 -38.55977746365898,-3.566055850996688,0 -38.55984248554222,-3.56591778527751,0 -38.55990981958247,-3.565780842811583,0 -38.55997830025832,-3.565644480408414,0 -38.56004792577113,-3.565508700765865,0 -38.57493295748997,-3.537072296848978,0 -38.5915849915541,-3.49685683087801,0 -38.5916114963734,-3.49679167409642,0 -38.59164913749765,-3.49670056557857,0 -38.59165183456447,-3.49669413632528,0 -38.59168033947606,-3.496626949773878,0 -38.59171645445077,-3.49654277053242,0 -38.59175581058212,-3.496452394062712,0 -38.59177784487161,-3.496402536547756,0 -38.5918379807382,-3.496269382925628,0 -38.59185643392725,-3.496229384678313,0 -38.59189820923489,-3.496140114374724,0 -38.59194046837786,-3.496051077894895,0 -38.59198321495335,-3.495962262648278,0 -38.5919847429015,-3.495959130309589,0 -38.59204986371021,-3.495828374279986,0 -38.59209292774636,-3.495743625767658,0 -38.59213804853209,-3.495656011115964,0 -38.59216165033984,-3.495610787807546,0 -38.59223356372792,-3.495475786977911,0 -38.59225625991843,-3.495434033253952,0 -38.59229881583764,-3.495356645692593,0 -38.59234671462912,-3.495270541002635,0 -38.59240852143608,-3.495161223911276,0 -38.59245809026862,-3.495076031133864,0 -38.59250810066828,-3.494991145025261,0 -38.59260995878253,-3.494822479873496,0 -38.59266180110121,-3.494738709823539,0 -38.59276729697314,-3.494572317258593,0 -38.59282094423116,-3.49448970463613,0 -38.59293002749872,-3.494325663798297,0 -38.59298545631372,-3.494244246374814,0 -38.59309807391696,-3.494082635505147,0 -38.5931552573092,-3.49400245195153,0 -38.59327135708741,-3.493843349291064,0 -38.59333026717804,-3.49376443827816,0 -38.59344979337322,-3.493607917571304,0 -38.59351040318251,-3.493530316870599,0 -38.5936332982381,-3.493376453660346,0 -38.59369557808844,-3.493300200144065,0 -38.59375825004314,-3.493224313551195,0 -38.59382178534708,-3.493149068174886,0 -38.59388570466149,-3.493074197815933,0 -38.59401516296936,-3.492925867234935,0 -38.59408069296955,-3.492852416006136,0 -38.59421334027337,-3.492706958759069,0 -38.59428044948312,-3.492634961734047,0 -38.59441622283038,-3.492492447068738,0 -38.59448487887403,-3.492421937522356,0 -38.5946237135135,-3.492282432887912,0 -38.59469388401551,-3.492213445893755,0 -38.59483571429672,-3.49207701694076,0 -38.59490736598213,-3.492009584874389,0 -38.59505212445594,-3.491876297253269,0 -38.5951252231505,-3.491810451590986,0 -38.59527284056907,-3.491680370052965,0 -38.59534735119929,-3.491616141371772,0 -38.59542218918262,-3.491552339868511,0 -38.59549775741549,-3.491489326171411,0 -38.59557364400842,-3.491426746846849,0 -38.59572676797593,-3.49130325913807,0 -38.59580399545798,-3.491242357948399,0 -38.5959597634323,-3.491122255287782,0 -38.5960382949313,-3.491063061910722,0 -38.59619663316806,-3.490946402754227,0 -38.5962764309125,-3.490888944169397,0 -38.59643726386861,-3.490775784275002,0 -38.59651829008698,-3.490720088361341,0 -38.59668154221935,-3.490610480789023,0 -38.59676375734148,-3.490556574526229,0 -38.59692934950982,-3.490450571436663,0 -38.59701271666352,-3.490398480005814,0 -38.59718057062679,-3.490296131760995,0 -38.59726504754389,-3.490245880343088,0 -38.59734977986841,-3.490196102867806,0 -38.59743508416176,-3.490147235506469,0 -38.59752063217137,-3.490098848383121,0 -38.5976927696056,-3.490003954618774,0 -38.59777934733899,-3.48995745427306,0 -38.59795350375117,-3.489866355647737,0 -38.59804107073876,-3.489821764562753,0 -38.59821716339133,-3.489734505143243,0 -38.59830567826441,-3.489691844003342,0 -38.59848362262102,-3.489608466057794,0 -38.59857304221209,-3.489567754648131,0 -38.59875275463589,-3.489488296847352,0 -38.59884303667678,-3.48944955585228,0 -38.59902443173211,-3.489374055967855,0 -38.59911553305533,-3.489337303373807,0 -38.59929852350803,-3.489265798277923,0 -38.59939040184555,-3.48923105027267,0 -38.59948245465154,-3.489196812183086,0 -38.59957490046123,-3.489163574139589,0 -38.59966751084693,-3.489130848709643,0 -38.59985343129079,-3.489067432116266,0 -38.59994673055712,-3.489036744550058,0 -38.60013398289698,-3.488977418972647,0 -38.60022792517855,-3.488948783659387,0 -38.60041642128078,-3.488893576976921,0 -38.60051096341022,-3.488867008305758,0 -38.60070061334262,-3.488815945699295,0 -38.60079570945437,-3.488791455361318,0 -38.60098642238545,-3.488744562911215,0 -38.60108202751355,-3.488722162597691,0 -38.60127371351104,-3.488679461887623,0 -38.6013697826893,-3.4886591632897,0 -38.60156234912307,-3.488620674104761,0 -38.60165883648607,-3.488602486215706,0 -38.60175541378129,-3.488584828027335,0 -38.60185219252463,-3.488568227441708,0 -38.60194905130765,-3.488552158355387,0 -38.60214310611941,-3.488522146180062,0 -38.60224029045703,-3.488508203990359,0 -38.60243494961322,-3.488482452802877,0 -38.60253241363995,-3.488470644704418,0 -38.60272758630902,-3.488449167095327,0 -38.60282528326018,-3.488439497584694,0 -38.60302087591266,-3.488422303446501,0 -38.60311875992277,-3.48841477791962,0 -38.60331467902915,-3.488401874446869,0 -38.60341270243425,-3.488396497400401,0 -38.60360885536431,-3.488387891787739,0 -38.60370697229888,-3.488384664120925,0 -38.60390326462392,-3.488380359965613,0 -38.60400142922253,-3.488379284376435,0 -38.60409959831776,-3.488378746581806,0 -38.60419776831231,-3.488379284376435,0 -38.6042959320116,-3.488380359965613,0 -38.60449222523596,-3.488384664120925,0 -38.60459034217053,-3.488387891787739,0 -38.60478649510059,-3.488396497400401,0 -38.60488451850568,-3.488401874446869,0 -38.60508043761206,-3.48841477791962,0 -38.6051783216222,-3.488422303446501,0 -38.60537391337533,-3.488439497584694,0 -38.6054716103265,-3.488449167095327,0 -38.60566678299557,-3.488470644704418,0 -38.60576424702236,-3.488482452802877,0 -38.60595890707787,-3.488508203990359,0 -38.60605609141543,-3.488522146180062,0 -38.60625014532793,-3.488552158355387,0 -38.60634700411089,-3.488568227441708,0 -38.60644378285422,-3.488584828027335,0 -38.60654031608265,-3.488602751515708,0 -38.60663682323077,-3.488620806305112,0 -38.60668503498636,-3.488630082812054,0 -38.60681739630576,-3.488656679362236,0 -38.60682940225507,-3.48865922084634,0 -38.60692537700452,-3.488679945722875,0 -38.60699728409736,-3.488695887105449,0 -38.60711716912203,-3.488722162597691,0 -38.60721277425012,-3.488744562911215,0 -38.60740348718115,-3.488791455361318,0 -38.60749858419228,-3.488815945699295,0 -38.60768823322535,-3.488867008305758,0 -38.60778277535474,-3.488893576976921,0 -38.60797127145697,-3.488948783659387,0 -38.60806521463792,-3.488977418972647,0 -38.60825246697772,-3.489036744550058,0 -38.60834576534479,-3.489067432116266,0 -38.60853168578865,-3.489130848709643,0 -38.60862429617431,-3.489163574139589,0 -38.60871674288335,-3.489196812183086,0 -38.60880879568929,-3.48923105027267,0 -38.60890067312749,-3.489265798277923,0 -38.60908366358018,-3.489337303373807,0 -38.60917476580277,-3.489374055967855,0 -38.60935615995879,-3.48944955585228,0 -38.60944644199964,-3.489488296847352,0 -38.60962615442343,-3.489567754648131,0 -38.6097155740145,-3.489608466057794,0 -38.60989351927043,-3.489691844003342,0 -38.6099820332442,-3.489734505143243,0 -38.61015812589676,-3.489821764562753,0 -38.61024569288434,-3.489866355647737,0 -38.61041984929659,-3.48995745427306,0 -38.61050642792924,-3.490003954618774,0 -38.61067856446414,-3.490098848383121,0 -38.61076411337308,-3.490147235506469,0 -38.61084941766643,-3.490196102867806,0 -38.61093414909168,-3.490245880343088,0 -38.61101862690805,-3.490296131760995,0 -38.61118648087137,-3.490398480005814,0 -38.6112698471257,-3.490450571436663,0 -38.61143543929403,-3.490556574526229,0 -38.61151765531548,-3.490610480789023,0 -38.61168090654854,-3.490720088361341,0 -38.61176193276697,-3.490775784275002,0 -38.61192276572302,-3.490888944169397,0 -38.61200256346751,-3.490946402754227,0 -38.61216090170421,-3.491063061910722,0 -38.61223943320322,-3.491122255287782,0 -38.61239520117754,-3.491242357948399,0 -38.61247242865961,-3.49130325913807,0 -38.61262555262709,-3.491426746846849,0 -38.61270143922003,-3.491489326171411,0 -38.61277700835222,-3.491552339868511,0 -38.61288817984559,-3.491647630233889,0 -38.61296234333741,-3.491712252818153,0 -38.6130237895162,-3.491766285885314,0 -38.61308451713671,-3.491820177758937,0 -38.61322429066842,-3.491946858061006,0 -38.61323690096219,-3.491958529462531,0 -38.61330875589432,-3.492025767275269,0 -38.6133802313126,-3.492093385501287,0 -38.61345134160609,-3.492161396731035,0 -38.61349736621042,-3.492205898783138,0 -38.61362523631556,-3.492332026901468,0 -38.61364946674944,-3.49235640752215,0 -38.61371846543477,-3.492426596909872,0 -38.61378707291504,-3.492497153220986,0 -38.61385529728408,-3.492568085448737,0 -38.61388758474418,-3.492602023164815,0 -38.61401011017841,-3.492733404223207,0 -38.61404490674699,-3.492771468028755,0 -38.61411092957569,-3.492844485784357,0 -38.61417654860878,-3.492917856973461,0 -38.6142417692422,-3.492991587891432,0 -38.61426129712111,-3.493013908165261,0 -38.61432010738701,-3.493081805181131,0 -38.61435841131158,-3.493126474507169,0 -38.61949203832688,-3.49908661625431,0 -38.62467196603837,-3.505100820746232,0 -38.62985677796786,-3.511120598336896,0 -38.63504165644724,-3.517140352545205,0 -38.64022659967782,-3.523160084270438,0 -38.64541160855885,-3.529179793512636,0 -38.6505966839897,-3.535199479372417,0 -38.65577690667885,-3.541213432054187,0 -38.66096211341079,-3.547233071149256,0 -38.6661473866925,-3.55325268686199,0 -38.67133272652404,-3.559272279192267,0 -38.67651813290548,-3.565291846341607,0 -38.68170360583668,-3.571311391007832,0 -38.68688916240489,-3.577330931177474,0 -38.69205560837958,-3.583328257193279,0 -38.69207147242049,-3.583346722972864,0 -38.69209055153767,-3.583368991985358,0 -38.69210884105014,-3.583390405742586,0 -38.69215365156969,-3.583443037666025,0 -38.69220891311079,-3.583508572162835,0 -38.69227159046148,-3.583584458755704,0 -38.69233387570772,-3.583660712271985,0 -38.6924567833538,-3.583814574582898,0 -38.69251739855906,-3.583892175283603,0 -38.69263693644541,-3.584048695091158,0 -38.69269585283132,-3.584127606104122,0 -38.69281196340138,-3.584286708764528,0 -38.69286915218958,-3.584366892318205,0 -38.69298178148397,-3.584528502288491,0 -38.69303721569491,-3.584609919711974,0 -38.69314630885504,-3.584773959650467,0 -38.6931999624083,-3.58485657227295,0 -38.69330546817275,-3.585022964837896,0 -38.69335731498808,-3.585106734887853,0 -38.69345918299484,-3.585275400039618,0 -38.69350919879042,-3.5853602852489,0 -38.69355877301894,-3.585445478925693,0 -38.6936073813755,-3.585531143847169,0 -38.6936555418697,-3.585617105544949,0 -38.69374999046966,-3.585790074852007,0 -38.69379627407874,-3.585877071669477,0 -38.69388694462673,-3.586052069847085,0 -38.69393132796836,-3.586140060415397,0 -38.6940181781963,-3.586317004725921,0 -38.6940606396867,-3.586405946776945,0 -38.69414362822585,-3.586584752684125,0 -38.69418414897928,-3.586674604849074,0 -38.69426323446066,-3.586855186017992,0 -38.69430179469203,-3.586945905129375,0 -38.69437694114288,-3.587128177023713,0 -38.69441352286577,-3.587219719914121,0 -38.69448469341382,-3.587403596198959,0 -38.69451927864174,-3.587495917902221,0 -38.69455337733643,-3.587588469831982,0 -38.69458644091145,-3.58768131044406,0 -38.69461901255733,-3.587774368692127,0 -38.69468213327378,-3.587961189357365,0 -38.69471267784775,-3.588054939184067,0 -38.69477172733331,-3.588243098040502,0 -38.69480022864758,-3.588337496278369,0 -38.69485517902325,-3.588526904293141,0 -38.69488162448733,-3.5886219041775,0 -38.69493244877345,-3.588812472317668,0 -38.69495682489753,-3.588908028882369,0 -38.69500349971168,-3.58909966541717,0 -38.69502579570388,-3.589195733696102,0 -38.69506829856306,-3.589388347793934,0 -38.6950885036315,-3.589484881921685,0 -38.69512681385134,-3.589678381851804,0 -38.69514491810344,-3.589775335962944,0 -38.69516250344674,-3.589872432166941,0 -38.69517901859677,-3.589969629095047,0 -38.69519501303938,-3.590066956424842,0 -38.69522488671913,-3.590261951028206,0 -38.69523876505691,-3.590359606610487,0 -38.69526439753389,-3.590555209155528,0 -38.69527615167299,-3.590653145326361,0 -38.69529753215534,-3.590849263182916,0 -38.69530715669988,-3.59094743407679,0 -38.6953242734964,-3.591143973715354,0 -38.69533176484902,-3.591242331668236,0 -38.69534460986581,-3.591439200458686,0 -38.69534996352996,-3.591537699605105,0 -38.69535853227041,-3.591734802219315,0 -38.6953617455481,-3.591833394895219,0 -38.69536603171696,-3.592030639602286,0 -38.69536710460813,-3.592129279042922,0 -38.69536764150342,-3.592227968845632,0 -38.69536710730613,-3.592326570514781,0 -38.6953660380122,-3.592425209955417,0 -38.69536175723925,-3.592622453763163,0 -38.69535854665958,-3.592721046439067,0 -38.69534998421437,-3.592918149952598,0 -38.69534463324816,-3.593016649099017,0 -38.6953317936273,-3.593213517889466,0 -38.69532430497264,-3.593311876741669,0 -38.6953071944714,-3.593508417279574,0 -38.69529757172552,-3.593606588173488,0 -38.69527619753842,-3.593802706929343,0 -38.69526444609726,-3.593900643100136,0 -38.69523881901625,-3.594096246544498,0 -38.69522494427571,-3.594193902126839,0 -38.69519507599194,-3.594388897629464,0 -38.69517908424729,-3.59448622585858,0 -38.69516255650672,-3.594583509121605,0 -38.69514498914987,-3.594680519890063,0 -38.69512688759573,-3.594777474900523,0 -38.69508858187254,-3.594970975729903,0 -38.69506838040138,-3.595067509857635,0 -38.69502588203881,-3.595260124854807,0 -38.69500358964392,-3.595356194033059,0 -38.69495691932633,-3.595547832366541,0 -38.69493254590026,-3.595643389830523,0 -38.69488172611074,-3.595833958870052,0 -38.69485528334462,-3.595928959653691,0 -38.69480033836488,-3.596118369467145,0 -38.69477183884925,-3.596212767705032,0 -38.69471279475965,-3.596400928360088,0 -38.69468225288364,-3.596494679985431,0 -38.69461913666379,-3.59668150154999,0 -38.69458656681655,-3.596774560697378,0 -38.69455347626189,-3.596867481349131,0 -38.69451940904343,-3.596959955037837,0 -38.69448482561415,-3.597052278539761,0 -38.69441365956272,-3.59723615572398,0 -38.69437707963845,-3.597327699513708,0 -38.69430193768425,-3.597509974105948,0 -38.69426337925148,-3.597600694116692,0 -38.69418429736736,-3.597781277983532,0 -38.69414377841259,-3.597871131047841,0 -38.6940607943701,-3.598049938753602,0 -38.69401833467833,-3.598138881703967,0 -38.69393148804767,-3.598315827813172,0 -38.69388710650475,-3.598403820180125,0 -38.69379643865466,-3.598578821055696,0 -38.69375015774353,-3.598665818772466,0 -38.69365571094227,-3.598838790777505,0 -38.6936075522467,-3.598924753374606,0 -38.69355890701792,-3.599010485745289,0 -38.6935093732589,-3.599095613771517,0 -38.69345935836264,-3.59918050077942,0 -38.69335749305385,-3.599349168629207,0 -38.69330564803721,-3.599432939578444,0 -38.69320014407135,-3.599599334841392,0 -38.69314649231671,-3.599681948363176,0 -38.69303740095524,-3.599845991898971,0 -38.69298196764368,-3.599927410221775,0 -38.69286934014787,-3.600089022890083,0 -38.69281215315829,-3.60016920734302,0 -38.69269604348755,-3.600328313600749,0 -38.69263712800102,-3.600407225512974,0 -38.69251759191331,-3.60056374801849,0 -38.69245697760738,-3.600641349618576,0 -38.69233407086062,-3.600795215526711,0 -38.69227178651368,-3.600871469942313,0 -38.69220906599553,-3.600947409595219,0 -38.69214556846317,-3.601022605508775,0 -38.6920816419542,-3.601097476767108,0 -38.69195217285444,-3.601245810046068,0 -38.69188663655899,-3.601319262174167,0 -38.69175397666464,-3.601464722119196,0 -38.69168686115967,-3.601536720043559,0 -38.69155107522193,-3.60167923740681,0 -38.69148241288303,-3.601749747852532,0 -38.69134356385434,-3.601889255184918,0 -38.69127338615777,-3.601958243977716,0 -38.69113154238676,-3.602094674729412,0 -38.69105988350679,-3.602162109493685,0 -38.69091511064379,-3.602295398014186,0 -38.69084200475471,-3.60236124547503,0 -38.69069437204757,-3.602491330610353,0 -38.69061985422286,-3.602555559291607,0 -38.69054496497813,-3.602619399465654,0 -38.69043439333257,-3.602711122220446,0 -38.69035818658102,-3.602773318433825,0 -38.69029394171202,-3.602825263275233,0 -38.69023398840778,-3.60287328437453,0 -38.69008919755839,-3.602986851661845,0 -38.69007211673478,-3.602999970072522,0 -38.68999378758321,-3.603059447635357,0 -38.68991513827297,-3.603118495322237,0 -38.68983616250888,-3.603177114931844,0 -38.68979160829605,-3.603209809784849,0 -38.68972067247102,-3.603261334642809,0 -38.68968569963528,-3.603286477888614,0 -38.68968085498745,-3.603289958264901,0 -38.65748009762837,-3.626406897460299,0 -38.65739029042953,-3.626470537984909,0 -38.65730011990456,-3.626533611936631,0 -38.65711825900041,-3.626657538514571,0 -38.65702658211102,-3.626718382147542,0 -38.65693453560027,-3.626778664603649,0 -38.63135261403188,-3.643309047374597,0 -38.61385218203252,-3.655719672724678,0 -38.61376816556834,-3.655778535151231,0 -38.61368381905294,-3.655836915541153,0 -38.61351381391136,-3.65595174008069,0 -38.6134281669763,-3.656008177035679,0 -38.61325560506208,-3.656119085027689,0 -38.61316870177409,-3.656173549769446,0 -38.61299367212025,-3.65628048365733,0 -38.61290555744547,-3.656332947407575,0 -38.61281712620934,-3.65638491742994,0 -38.61273184619768,-3.656433764106903,0 -38.61264628289961,-3.656482152129572,0 -38.61247411578779,-3.65657704859188,0 -38.61238752276591,-3.656623549836915,0 -38.61221333667612,-3.656714650260879,0 -38.61212575350067,-3.656759243144505,0 -38.61194963027117,-3.656846503463336,0 -38.61186110100897,-3.656889166401878,0 -38.61168312517606,-3.656972546146047,0 -38.61159368939717,-3.657013258455091,0 -38.61141394549713,-3.657092718054451,0 -38.61132364726848,-3.657131459948864,0 -38.61114222073684,-3.657206960732589,0 -38.61105110232648,-3.657243715125338,0 -38.61086807949823,-3.657315222019863,0 -38.6107761849729,-3.657349970025057,0 -38.61068408810013,-3.657384219805868,0 -38.61059165308227,-3.6574174488561,0 -38.61049902650882,-3.657450174286045,0 -38.61031307279,-3.657513592678123,0 -38.61021975733587,-3.657544281143592,0 -38.61003247082181,-3.657603607620323,0 -38.60993851145309,-3.657632243832944,0 -38.60974998117666,-3.657687452314011,0 -38.60965542196011,-3.657714021884535,0 -38.60946573875282,-3.657765085390339,0 -38.60937062465457,-3.657789575728316,0 -38.60917987754925,-3.65783646997704,0 -38.60908425443477,-3.657858870290565,0 -38.60889253426303,-3.657901572799294,0 -38.60879644799763,-3.657921871397216,0 -38.60860384559094,-3.657960361481456,0 -38.60850734114087,-3.657978550269831,0 -38.6084107305707,-3.657996211156165,0 -38.6083139491294,-3.65801280994315,0 -38.60821707325926,-3.658028879029471,0 -38.60802298337394,-3.658058892104117,0 -38.60792578104991,-3.65807283429382,0 -38.60773108502151,-3.658098586380623,0 -38.60763360390762,-3.658110394479082,0 -38.60743839526565,-3.658131872987493,0 -38.60734068032809,-3.658141542498126,0 -38.60714505260206,-3.658158737535639,0 -38.60704715060547,-3.658166263062521,0 -38.60685119552618,-3.658179166535271,0 -38.6067531532354,-3.65818454448112,0 -38.60655696523173,-3.658193150093783,0 -38.6064588294114,-3.658196377760596,0 -38.60626250111353,-3.658200681915909,0 -38.60616431942776,-3.658201757505086,0 -38.60606613144676,-3.658202295299655,0 -38.60596794706305,-3.658201488607742,0 -38.60586976267933,-3.658200547017596,0 
					</coordinates>
				</LinearRing>
			</outerBoundaryIs>
		</Polygon>
	</Placemark>
	<Placemark id="ID_00000">
		<name>Aerogerador CE-01</name>
		<Snippet maxLines="0"></Snippet>
		<description><![CDATA[<html xmlns:fo="http://www.w3.org/1999/XSL/Format" xmlns:msxsl="urn:schemas-microsoft-com:xslt">

<head>

<META http-equiv="Content-Type" content="text/html">

<meta http-equiv="content-type" content="text/html; charset=UTF-8">

</head>

<body style="margin:0px 0px 0px 0px;overflow:auto;background:#FFFFFF;">

<table style="font-family:Arial,Verdana,Times;font-size:12px;text-align:left;width:100%;border-collapse:collapse;padding:3px 3px 3px 3px">

<tr style="text-align:center;font-weight:bold;background:#9CBCE2">

<td>Haliade-X</td>

</tr>

<tr>

<td>

<table style="font-family:Arial,Verdana,Times;font-size:12px;text-align:left;width:100%;border-spacing:0px; padding:3px 3px 3px 3px">


<tr>

<td>Pot (MW)</td>

<td>12</td>

</tr>

<tr bgcolor="#D4E4F3">

<td>Torre (m)</td>

<td>150</td>

</tr>

<tr>

<td>Pá (m)</td>

<td>110</td>

</tr>

<tr bgcolor="#D4E4F3">

<td>Altura (m)</td>

<td>260</td>

</tr>

<tr>

<td>Usina</td>

<td>CE-01 - Caucaia BI Energia</td>

</tr>

</table>

</td>

</tr>

</table>

</body>

</html>]]></description>
		<styleUrl>#IconStyle00580</styleUrl>
		<MultiGeometry>
			<Point>
				<altitudeMode>absolute</altitudeMode>
				<coordinates>-38.56957650635064,-3.602307987504982,0</coordinates>
			</Point>
			<Point>
				<altitudeMode>absolute</altitudeMode>
				<coordinates>-38.57141631511081,-3.571641246928391,0</coordinates>
			</Point>
			<Point>
				<altitudeMode>absolute</altitudeMode>
				<coordinates>-38.57476274640356,-3.608357719714152,0</coordinates>
			</Point>
			<Point>
				<altitudeMode>absolute</altitudeMode>
				<coordinates>-38.57683148118787,-3.577738280779191,0</coordinates>
			</Point>
			<Point>
				<altitudeMode>absolute</altitudeMode>
				<coordinates>-38.5800068218573,-3.61442098941811,0</coordinates>
			</Point>
			<Point>
				<altitudeMode>absolute</altitudeMode>
				<coordinates>-38.58208454716407,-3.583720530560021,0</coordinates>
			</Point>
			<Point>
				<altitudeMode>absolute</altitudeMode>
				<coordinates>-38.58509523545672,-3.62042143967847,0</coordinates>
			</Point>
			<Point>
				<altitudeMode>absolute</altitudeMode>
				<coordinates>-38.58709666497907,-3.542810024446378,0</coordinates>
			</Point>
			<Point>
				<altitudeMode>absolute</altitudeMode>
				<coordinates>-38.5871458084323,-3.589835674058897,0</coordinates>
			</Point>
			<Point>
				<altitudeMode>absolute</altitudeMode>
				<coordinates>-38.5902462643536,-3.62648639920852,0</coordinates>
			</Point>
			<Point>
				<altitudeMode>absolute</altitudeMode>
				<coordinates>-38.5921670867416,-3.596047652059045,0</coordinates>
			</Point>
			<Point>
				<altitudeMode>absolute</altitudeMode>
				<coordinates>-38.59232053986096,-3.549232219874174,0</coordinates>
			</Point>
			<Point>
				<altitudeMode>absolute</altitudeMode>
				<coordinates>-38.59543423290348,-3.632651515335568,0</coordinates>
			</Point>
			<Point>
				<altitudeMode>absolute</altitudeMode>
				<coordinates>-38.59750535898507,-3.555252164738508,0</coordinates>
			</Point>
			<Point>
				<altitudeMode>absolute</altitudeMode>
				<coordinates>-38.59765800811056,-3.601873938712671,0</coordinates>
			</Point>
			<Point>
				<altitudeMode>absolute</altitudeMode>
				<coordinates>-38.60073474980879,-3.638623445395901,0</coordinates>
			</Point>
			<Point>
				<altitudeMode>absolute</altitudeMode>
				<coordinates>-38.60268260222028,-3.561226514874483,0</coordinates>
			</Point>
			<Point>
				<altitudeMode>absolute</altitudeMode>
				<coordinates>-38.60313303666026,-3.60775331774263,0</coordinates>
			</Point>
			<Point>
				<altitudeMode>absolute</altitudeMode>
				<coordinates>-38.60384527903636,-3.501854200595534,0</coordinates>
			</Point>
			<Point>
				<altitudeMode>absolute</altitudeMode>
				<coordinates>-38.60591217200908,-3.64457582869154,0</coordinates>
			</Point>
			<Point>
				<altitudeMode>absolute</altitudeMode>
				<coordinates>-38.6079146807179,-3.567229911313901,0</coordinates>
			</Point>
			<Point>
				<altitudeMode>absolute</altitudeMode>
				<coordinates>-38.60804011725759,-3.614248941916095,0</coordinates>
			</Point>
			<Point>
				<altitudeMode>absolute</altitudeMode>
				<coordinates>-38.60895266563296,-3.508141967162532,0</coordinates>
			</Point>
			<Point>
				<altitudeMode>absolute</altitudeMode>
				<coordinates>-38.61303178898584,-3.573239159641854,0</coordinates>
			</Point>
			<Point>
				<altitudeMode>absolute</altitudeMode>
				<coordinates>-38.61330554081804,-3.620045220891048,0</coordinates>
			</Point>
			<Point>
				<altitudeMode>absolute</altitudeMode>
				<coordinates>-38.6144474091206,-3.513836225245849,0</coordinates>
			</Point>
			<Point>
				<altitudeMode>absolute</altitudeMode>
				<coordinates>-38.61845091118056,-3.579014302750002,0</coordinates>
			</Point>
			<Point>
				<altitudeMode>absolute</altitudeMode>
				<coordinates>-38.61857783699753,-3.625981691582398,0</coordinates>
			</Point>
			<Point>
				<altitudeMode>absolute</altitudeMode>
				<coordinates>-38.61923018542467,-3.519959632615034,0</coordinates>
			</Point>
			<Point>
				<altitudeMode>absolute</altitudeMode>
				<coordinates>-38.62353692269079,-3.585145796823008,0</coordinates>
			</Point>
			<Point>
				<altitudeMode>absolute</altitudeMode>
				<coordinates>-38.6237089225287,-3.632125967719638,0</coordinates>
			</Point>
			<Point>
				<altitudeMode>absolute</altitudeMode>
				<coordinates>-38.62473601485516,-3.526202365630544,0</coordinates>
			</Point>
			<Point>
				<altitudeMode>absolute</altitudeMode>
				<coordinates>-38.62877270189864,-3.591186063667633,0</coordinates>
			</Point>
			<Point>
				<altitudeMode>absolute</altitudeMode>
				<coordinates>-38.62975388293529,-3.532081801317758,0</coordinates>
			</Point>
			<Point>
				<altitudeMode>absolute</altitudeMode>
				<coordinates>-38.63382652487417,-3.597168293663368,0</coordinates>
			</Point>
			<Point>
				<altitudeMode>absolute</altitudeMode>
				<coordinates>-38.63477600301007,-3.537965548354835,0</coordinates>
			</Point>
			<Point>
				<altitudeMode>absolute</altitudeMode>
				<coordinates>-38.63908886825664,-3.603312224460917,0</coordinates>
			</Point>
			<Point>
				<altitudeMode>absolute</altitudeMode>
				<coordinates>-38.64021854894685,-3.544011020475466,0</coordinates>
			</Point>
			<Point>
				<altitudeMode>absolute</altitudeMode>
				<coordinates>-38.64436425001009,-3.609268533297294,0</coordinates>
			</Point>
			<Point>
				<altitudeMode>absolute</altitudeMode>
				<coordinates>-38.6452793848357,-3.550070342155636,0</coordinates>
			</Point>
			<Point>
				<altitudeMode>absolute</altitudeMode>
				<coordinates>-38.64943480757028,-3.615322692868915,0</coordinates>
			</Point>
			<Point>
				<altitudeMode>absolute</altitudeMode>
				<coordinates>-38.65052594061962,-3.556210450834502,0</coordinates>
			</Point>
			<Point>
				<altitudeMode>absolute</altitudeMode>
				<coordinates>-38.65572368839747,-3.562047214589978,0</coordinates>
			</Point>
			<Point>
				<altitudeMode>absolute</altitudeMode>
				<coordinates>-38.66111213741515,-3.568057204858591,0</coordinates>
			</Point>
			<Point>
				<altitudeMode>absolute</altitudeMode>
				<coordinates>-38.66626718897953,-3.574194475277104,0</coordinates>
			</Point>
			<Point>
				<altitudeMode>absolute</altitudeMode>
				<coordinates>-38.67165752387558,-3.580541805741806,0</coordinates>
			</Point>
			<Point>
				<altitudeMode>absolute</altitudeMode>
				<coordinates>-38.67662371331369,-3.586264128968292,0</coordinates>
			</Point>
			<Point>
				<altitudeMode>absolute</altitudeMode>
				<coordinates>-38.68190052768716,-3.592194560712095,0</coordinates>
			</Point>
		</MultiGeometry>
	</Placemark>
	<Placemark id="ID_00000">
		<name>LT CE-01</name>
		<Snippet maxLines="0"></Snippet>
		<description><![CDATA[<html xmlns:fo="http://www.w3.org/1999/XSL/Format" xmlns:msxsl="urn:schemas-microsoft-com:xslt">

<head>

<META http-equiv="Content-Type" content="text/html">

<meta http-equiv="content-type" content="text/html; charset=UTF-8">

</head>

<body style="margin:0px 0px 0px 0px;overflow:auto;background:#FFFFFF;">

<table style="font-family:Arial,Verdana,Times;font-size:12px;text-align:left;width:100%;border-collapse:collapse;padding:3px 3px 3px 3px">



<tr bgcolor="#D4E4F3">

<td>Usina</td>

<td>CE-01 - Caucaia - Bi Energia</td>

</tr>

<tr>

<td>Extensão do cabeamento: </td>

<td>76 km</td>

</tr>

</table>

</td>

</tr>

</table>

</body>

</html>]]></description>
		<styleUrl>#LineStyle00101</styleUrl>
		<MultiGeometry>
			<LineString>
				<tessellate>1</tessellate>
				<coordinates>
					-38.87414279995022,-3.598964041938435,0 -38.87414950079881,-3.598909852389252,0 -38.87347110440788,-3.59878980638595,0 -38.87353556691284,-3.598293421985365,0 -38.87257559998392,-3.598283775857102,0 -38.87229757637203,-3.598645599196553,0 -38.87219952868526,-3.59878983156696,0 
				</coordinates>
			</LineString>
			<LineString>
				<tessellate>1</tessellate>
				<coordinates>
					-38.77105446708993,-3.648749592199795,0 -38.77059565366642,-3.648608761964672,0 -38.77004449875454,-3.648454307000517,0 -38.76945651210832,-3.648364517788135,0 -38.76891714101322,-3.648335184600967,0 -38.76839911442755,-3.648337904150825,0 -38.76757134244343,-3.648322480777724,0 -38.76694127292137,-3.648318896979388,0 -38.76641505081392,-3.648312843642715,0 -38.76463085972637,-3.648295755624475,0 -38.76394697926963,-3.648295991246869,0 -38.76323353090271,-3.648279492284586,0 -38.76214798803915,-3.648282103915851,0 -38.76188398665664,-3.648251239183203,0 -38.76166859363065,-3.648145168644484,0 -38.76163944390515,-3.647931965467718,0 -38.76219777540695,-3.647230676834149,0 -38.76222637834462,-3.646933576803055,0 -38.76189037094383,-3.645491717148996,0 -38.76112278159104,-3.642460323764988,0 -38.76024996346501,-3.642486312373501,0 -38.75977136585578,-3.642702211717746,0 -38.75902263888361,-3.643204876983527,0 -38.75864618717173,-3.643425772061778,0 -38.75834895943689,-3.64353003676182,0 -38.75796855160735,-3.643604017691291,0 -38.75732193366024,-3.64368742621375,0 -38.75678025850209,-3.643756050781158,0 -38.75559907273896,-3.643940021494785,0 -38.75541470452492,-3.64393712118121,0 -38.75526573362669,-3.643897239845757,0 -38.75523570616286,-3.643885987528311,0 -38.75517277430407,-3.643843900155875,0 -38.75507175795525,-3.643757846727266,0 -38.75484228334466,-3.643368854868803,0 -38.75455229065563,-3.643098549238689,0 -38.75300341167804,-3.641814543986116,0 -38.75156998766477,-3.640643884787571,0 -38.75024528449222,-3.639626589675514,0 -38.74975243712521,-3.639499486692106,0 -38.74932529152891,-3.63939354205849,0 -38.74892827501981,-3.639296474632785,0 -38.74872568654115,-3.639211411357693,0 -38.74828227310837,-3.638993406700559,0 -38.74779223522342,-3.638704816054578,0 -38.74745357662124,-3.637962049788993,0 -38.74682404039709,-3.637517651598567,0 -38.74680654678468,-3.63673466675173,0 -38.74723075159785,-3.63595082035437,0 -38.7476691818872,-3.634402254340896,0 -38.74799348730954,-3.634083912323047,0 -38.74840957034536,-3.633950083310041,0 -38.74967550552014,-3.633653735112115,0 -38.74992744969199,-3.633333116010858,0 -38.74997263792688,-3.633129775698976,0 -38.74978908989453,-3.632419294195485,0 -38.74951142151485,-3.631012188841845,0 -38.74921920300375,-3.629647608830556,0 -38.74836153305824,-3.625711795143847,0 -38.7481729011584,-3.624969775315519,0 -38.74787559788053,-3.624815917501253,0 -38.74478248312505,-3.625774551634835,0 -38.74452254487949,-3.625650160107402,0 -38.7440046522928,-3.624187854366649,0 -38.74312167992156,-3.621573053934037,0 -38.7429263318847,-3.621452989044966,0 -38.73931913137278,-3.623170601522729,0 -38.73739121603177,-3.624104301053307,0 -38.73546290408973,-3.624579947986868,0 -38.73270227139267,-3.62522626286234,0 -38.72931647047869,-3.626362504106889,0 -38.7291175323482,-3.626102158468418,0 -38.72730392983243,-3.626725601785689,0 -38.72725621180467,-3.6270298334406,0 -38.72499731537374,-3.627727513994094,0 -38.72131238106147,-3.630313823004961,0 -38.71972559655899,-3.631410154135708,0 -38.71657106260442,-3.63337703710093,0 -38.71310271291981,-3.634633406187039,0 -38.71238650183557,-3.635071396707906,0 -38.70872514504936,-3.637222055233873,0 -38.70797404476632,-3.638675186990473,0 -38.70624864775687,-3.639762187654981,0 -38.70434513372089,-3.640867068640391,0 -38.70282037456059,-3.64184208572378,0 -38.7020346018154,-3.642539963228745,0 -38.69703535689615,-3.647586338018955,0 -38.69395349625682,-3.650927364386154,0 -38.69296822870074,-3.652287065575348,0 -38.69042879055621,-3.655629425637117,0 
				</coordinates>
			</LineString>
			<LineString>
				<tessellate>1</tessellate>
				<coordinates>
					-38.69042879055621,-3.655629425637117,0 -38.69045460019959,-3.655593647908167,0 -38.68826604604112,-3.653841465490917,0 -38.64884278926326,-3.646637125183075,0 
				</coordinates>
			</LineString>
			<LineString>
				<tessellate>1</tessellate>
				<coordinates>
					-38.68709144691269,-3.658742612361208,0 -38.6874375860757,-3.658435511868914,0 -38.68777367261686,-3.658207851190939,0 -38.68827988211081,-3.657921660835509,0 -38.68868020003117,-3.657674333783045,0 -38.68924346341504,-3.657222769794538,0 -38.68941738960081,-3.657031404855044,0 -38.69042879055621,-3.655629425637117,0 
				</coordinates>
			</LineString>
			<LineString>
				<tessellate>1</tessellate>
				<coordinates>
					-38.69042879055621,-3.655629425637117,0 -38.68946976162016,-3.656891679886721,0 -38.68926037156888,-3.657175294583728,0 -38.68872654749214,-3.657602194665095,0 -38.68739999711216,-3.658411091678104,0 -38.68709144691269,-3.658742612361208,0 
				</coordinates>
			</LineString>
			<LineString>
				<tessellate>1</tessellate>
				<coordinates>
					-38.68691713311915,-3.658929904271185,0 -38.68654044308693,-3.6593346387621,0 -38.68743993960146,-3.659970079934701,0 -38.6875043679322,-3.659892968465235,0 
				</coordinates>
			</LineString>
			<LineString>
				<tessellate>1</tessellate>
				<coordinates>
					-38.68744451445275,-3.659952062916849,0 -38.68661994855177,-3.659385319156661,0 -38.68677846215627,-3.659086884531622,0 -38.68691713311915,-3.658929904271185,0 
				</coordinates>
			</LineString>
			<LineString>
				<tessellate>1</tessellate>
				<coordinates>
					-38.68709144691269,-3.658742612361208,0 -38.68691713311915,-3.658929904271185,0 
				</coordinates>
			</LineString>
			<LineString>
				<tessellate>1</tessellate>
				<coordinates>
					-38.68691713311915,-3.658929904271185,0 -38.68705044682065,-3.658778989038633,0 -38.68709144691269,-3.658742612361208,0 
				</coordinates>
			</LineString>
			<LineString>
				<tessellate>1</tessellate>
				<coordinates>
					-38.648553507938,-3.646289570487239,0 -38.60606613144677,-3.644637306346576,0 -38.56977533026725,-3.602502858001877,0 
				</coordinates>
			</LineString>
			<LineString>
				<tessellate>1</tessellate>
				<coordinates>
					-38.57199675014988,-3.571823161791829,0 -38.62380429832967,-3.632058161535348,0 -38.648553507938,-3.646289570487239,0 
				</coordinates>
			</LineString>
			<LineString>
				<tessellate>1</tessellate>
				<coordinates>
					-38.58716419956812,-3.542846516237071,0 -38.64963094611124,-3.615369725613276,0 -38.648553507938,-3.646289570487239,0 
				</coordinates>
			</LineString>
			<LineString>
				<tessellate>1</tessellate>
				<coordinates>
					-38.60409959831776,-3.501943782064544,0 -38.68186656299144,-3.592228024485469,0 -38.648553507938,-3.646289570487239,0 
				</coordinates>
			</LineString>
		</MultiGeometry>
	</Placemark>
</Folder>
</kml>
