<?xml version="1.0" encoding="utf-8" ?>
<kml xmlns="http://www.opengis.net/kml/2.2">
<Document id="root_doc">
<Schema name="rj02__aracatu" id="rj02__aracatu">
	<SimpleField name="timestamp" type="string"></SimpleField>
	<SimpleField name="begin" type="string"></SimpleField>
	<SimpleField name="end" type="string"></SimpleField>
	<SimpleField name="altitudeMode" type="string"></SimpleField>
	<SimpleField name="tessellate" type="int"></SimpleField>
	<SimpleField name="extrude" type="int"></SimpleField>
	<SimpleField name="visibility" type="int"></SimpleField>
	<SimpleField name="drawOrder" type="int"></SimpleField>
	<SimpleField name="icon" type="string"></SimpleField>
	<SimpleField name="snippet" type="string"></SimpleField>
</Schema>
<Folder><name>rj02__aracatu</name>
  <Placemark>
	<name>Poligonal  RJ-02 - Aracatu</name>
	<Style><LineStyle><color>ff0000ff</color></LineStyle><PolyStyle><fill>0</fill></PolyStyle></Style>
	<ExtendedData><SchemaData schemaUrl="#rj02__aracatu">
		<SimpleData name="tessellate">-1</SimpleData>
		<SimpleData name="extrude">0</SimpleData>
		<SimpleData name="visibility">-1</SimpleData>
	</SchemaData></ExtendedData>
      <Polygon><outerBoundaryIs><LinearRing><coordinates>-40.7180127777778,-21.2448077777777,0 -40.7426561111111,-21.2678733333333,0 -40.764855,-21.2914602777778,0 -40.7684052777777,-21.3451275,0 -40.7810033333333,-21.4172036111111,0 -40.8471316666667,-21.5212236111111,0 -40.8235452777777,-21.6027244444444,0 -40.5878316666667,-21.6953247222221,0 -40.4843380555556,-21.3363155555555,0 -40.7180127777778,-21.2448077777777,0</coordinates></LinearRing></outerBoundaryIs></Polygon>
  </Placemark>
</Folder>
</Document></kml>
