<?xml version="1.0" encoding="utf-8" ?>
<kml xmlns="http://www.opengis.net/kml/2.2">
<Document id="root_doc">
<Schema name="rn11__costa_branca_i" id="rn11__costa_branca_i">
	<SimpleField name="timestamp" type="string"></SimpleField>
	<SimpleField name="begin" type="string"></SimpleField>
	<SimpleField name="end" type="string"></SimpleField>
	<SimpleField name="altitudeMode" type="string"></SimpleField>
	<SimpleField name="tessellate" type="int"></SimpleField>
	<SimpleField name="extrude" type="int"></SimpleField>
	<SimpleField name="visibility" type="int"></SimpleField>
	<SimpleField name="drawOrder" type="int"></SimpleField>
	<SimpleField name="icon" type="string"></SimpleField>
</Schema>
<Folder><name>rn11__costa_branca_i</name>
  <Placemark>
	<name>Poligonal RN-11 - Costa Branca I</name>
	<Style><LineStyle><color>ff0000ff</color></LineStyle><PolyStyle><fill>0</fill></PolyStyle></Style>
	<ExtendedData><SchemaData schemaUrl="#rn11__costa_branca_i">
		<SimpleData name="tessellate">-1</SimpleData>
		<SimpleData name="extrude">0</SimpleData>
		<SimpleData name="visibility">-1</SimpleData>
	</SchemaData></ExtendedData>
      <MultiGeometry><Polygon><outerBoundaryIs><LinearRing><coordinates>-36.5971923526167,-4.70555309053453,0 -36.3630543254746,-4.79945593603868,0 -36.3944250189078,-4.87821704750161,0 -36.4169989834885,-4.87538688920742,0 -36.4586660205072,-4.87538686859407,0 -36.4586660153882,-4.86497011679072,0 -36.510749811407,-4.86497009104674,0 -36.5291857139302,-4.8891249274311,0 -36.6691810166777,-4.88608940704277,0 -36.5971923526167,-4.70555309053453,0</coordinates></LinearRing></outerBoundaryIs></Polygon></MultiGeometry>
  </Placemark>
</Folder>
</Document></kml>
