<?xml version="1.0" encoding="utf-8" ?>
<kml xmlns="http://www.opengis.net/kml/2.2">
<Document id="root_doc">
<Schema name="rn13__ginga" id="rn13__ginga">
	<SimpleField name="timestamp" type="string"></SimpleField>
	<SimpleField name="begin" type="string"></SimpleField>
	<SimpleField name="end" type="string"></SimpleField>
	<SimpleField name="altitudeMode" type="string"></SimpleField>
	<SimpleField name="tessellate" type="int"></SimpleField>
	<SimpleField name="extrude" type="int"></SimpleField>
	<SimpleField name="visibility" type="int"></SimpleField>
	<SimpleField name="drawOrder" type="int"></SimpleField>
	<SimpleField name="icon" type="string"></SimpleField>
</Schema>
<Folder><name>rn13__ginga</name>
  <Placemark>
	<name>Poligonal RN-13 - Ginga</name>
	<Style><LineStyle><color>ff0000ff</color></LineStyle><PolyStyle><fill>0</fill></PolyStyle></Style>
	<ExtendedData><SchemaData schemaUrl="#rn13__ginga">
		<SimpleData name="tessellate">-1</SimpleData>
		<SimpleData name="extrude">0</SimpleData>
		<SimpleData name="visibility">-1</SimpleData>
	</SchemaData></ExtendedData>
      <MultiGeometry><Polygon><outerBoundaryIs><LinearRing><coordinates>-36.3460804965965,-4.81155093252589,0 -36.2423204271456,-4.81304190182026,0 -36.087857039906,-4.84496989093008,0 -36.1268555805352,-4.94261690324375,0 -36.2666729745876,-4.95440892937768,0 -36.302414656435,-4.92747070541964,0 -36.3024146358902,-4.88580369773049,0 -36.333664914037,-4.88580368228718,0 -36.3673637190185,-4.86471592193544,0 -36.3460804965965,-4.81155093252589,0</coordinates></LinearRing></outerBoundaryIs></Polygon></MultiGeometry>
  </Placemark>
</Folder>
</Document></kml>
