<?xml version="1.0" encoding="utf-8" ?>
<kml xmlns="http://www.opengis.net/kml/2.2">
<Document id="root_doc">
<Schema name="rs13__projeto_atob" id="rs13__projeto_atob">
	<SimpleField name="timestamp" type="string"></SimpleField>
	<SimpleField name="begin" type="string"></SimpleField>
	<SimpleField name="end" type="string"></SimpleField>
	<SimpleField name="altitudeMode" type="string"></SimpleField>
	<SimpleField name="tessellate" type="int"></SimpleField>
	<SimpleField name="extrude" type="int"></SimpleField>
	<SimpleField name="visibility" type="int"></SimpleField>
	<SimpleField name="drawOrder" type="int"></SimpleField>
	<SimpleField name="icon" type="string"></SimpleField>
	<SimpleField name="snippet" type="string"></SimpleField>
</Schema>
<Folder><name>rs13__projeto_atob</name>
  <Placemark>
	<name>Poligonal RS-13 - Projeto Atobá</name>
	<description>&lt;html xmlns:fo=&quot;http://www.w3.org/1999/XSL/Format&quot; xmlns:msxsl=&quot;urn:schemas-microsoft-com:xslt&quot;&gt;

&lt;head&gt;

&lt;META http-equiv=&quot;Content-Type&quot; content=&quot;text/html&quot;&gt;

&lt;meta http-equiv=&quot;content-type&quot; content=&quot;text/html; charset=UTF-8&quot;&gt;

&lt;/head&gt;

&lt;body style=&quot;margin:0px 0px 0px 0px;overflow:auto;background:#FFFFFF;&quot;&gt;


&lt;table style=&quot;font-family:Arial,Verdana,Times;font-size:12px;text-align:left;width:100%;border-spacing:0px; padding:3px 3px 3px 3px&quot;&gt;



&lt;tr bgcolor=&quot;#D4E4F3&quot;&gt;

&lt;td&gt;Código&lt;/td&gt;

&lt;td&gt;RS-13&lt;/td&gt;

&lt;/tr&gt;

&lt;tr&gt;

&lt;td&gt;Usina&lt;/td&gt;

&lt;td&gt;Projeto Atobá&lt;/td&gt;

&lt;/tr&gt;

&lt;tr bgcolor=&quot;#D4E4F3&quot;&gt;

&lt;td&gt;Processo&lt;/td&gt;

&lt;td&gt;02001.008206/2022-17&lt;/td&gt;

&lt;/tr&gt;

&lt;tr&gt;

&lt;td&gt;Aberto em&lt;/td&gt;

&lt;td&gt;2022-04-06&lt;/td&gt;

&lt;/tr&gt;

&lt;tr bgcolor=&quot;#D4E4F3&quot;&gt;

&lt;td&gt;Potência&lt;/td&gt;

&lt;td&gt;2490 MW&lt;/td&gt;

&lt;/tr&gt;

&lt;tr&gt;

&lt;td&gt;Torres&lt;/td&gt;

&lt;td&gt;166&lt;/td&gt;

&lt;/tr&gt;

&lt;tr bgcolor=&quot;#D4E4F3&quot;&gt;

&lt;td&gt;Área (km2)&lt;/td&gt;

&lt;td&gt;624&lt;/td&gt;

&lt;/tr&gt;

&lt;tr&gt;

&lt;td&gt;Titular&lt;/td&gt;

&lt;td&gt;Equinor Brasil Energia&lt;/td&gt;

&lt;/tr&gt;

&lt;/table&gt;

&lt;/td&gt;

&lt;/tr&gt;

&lt;/table&gt;

&lt;/body&gt;

&lt;/html&gt;</description>
	<Style><LineStyle><color>ff0000ff</color></LineStyle><PolyStyle><fill>0</fill></PolyStyle></Style>
	<ExtendedData><SchemaData schemaUrl="#rs13__projeto_atob">
		<SimpleData name="tessellate">-1</SimpleData>
		<SimpleData name="extrude">0</SimpleData>
		<SimpleData name="visibility">-1</SimpleData>
		<SimpleData name="snippet"></SimpleData>
	</SchemaData></ExtendedData>
      <MultiGeometry><Polygon><outerBoundaryIs><LinearRing><coordinates>-52.3469959514667,-32.9834871463798,0 -52.516958278449,-33.2688709190935,0 -52.305574338646,-33.297773359225,0 -52.1651391152943,-33.025820544603,0 -52.3469959514667,-32.9834871463798,0</coordinates></LinearRing></outerBoundaryIs></Polygon></MultiGeometry>
  </Placemark>
</Folder>
</Document></kml>
